NORAD_CAT_ID,OBJECT_NAME,OBJECT_TYPE,EPOCH,MEAN_MOTION,ECCENTRICITY,INCLINATION,RA_OF_ASC_NODE,ARG_OF_PERICENTER,MEAN_ANOMALY,BSTAR,MEAN_MOTION_DOT,MEAN_MOTION_DDOT,TLE_LINE0,TLE_LINE1,TLE_LINE2,SEMIMAJOR_AXIS,PERIOD,APOGEE,PERIGEE,DECAYED
53242.0,STARLINK-4056,PAYLOAD,2022-11-19 01:48:39,15.08835333,0.0001649,53.2179,215.834,56.9071,303.2079,8.963700000000001e-05,1.139e-05,0.0,0 STARLINK-4056,1 53242U 22086A   22323.07545567  .00001139  00000-0  89637-4 0  9996,2 53242  53.2179 215.8340 0001649  56.9071 303.2079 15.08835333 18659,6917.895,95.438,540.9,538.619,0.0
53242.0,STARLINK-4056,PAYLOAD,2022-11-19 09:45:34,15.08842517,0.0001759,53.219,214.3489,61.2407,298.8762,0.00012312,1.672e-05,0.0,0 STARLINK-4056,1 53242U 22086A   22323.40665151  .00001672  00000-0  12312-3 0  9992,2 53242  53.2190 214.3489 0001759  61.2407 298.8762 15.08842517 19206,6917.873000000001,95.437,540.955,538.521,0.0
53242.0,STARLINK-4056,PAYLOAD,2022-11-20 09:36:21,15.08844538,0.0001643,53.2183,209.8877,55.1551,304.9596,9.4154e-05,1.211e-05,0.0,0 STARLINK-4056,1 53242U 22086A   22324.40024925  .00001211  00000-0  94154-4 0  9995,2 53242  53.2183 209.8877 0001643  55.1551 304.9596 15.08844538 19357,6917.8669999999975,95.437,540.868,538.595,0.0
53242.0,STARLINK-4056,PAYLOAD,2022-11-20 17:33:17,15.08840148,0.0001706999999999,53.2186,208.4003,55.0463,305.0689,0.00013763,1.903e-05,0.0,0 STARLINK-4056,1 53242U 22086A   22324.73145065  .00001903  00000-0  13763-3 0  9994,2 53242  53.2186 208.4003 0001707  55.0463 305.0689 15.08840148 18906,6917.88,95.438,540.9259999999998,538.564,0.0
53242.0,STARLINK-4056,PAYLOAD,2022-11-20 20:44:03,15.08837541,0.0001695,53.2183,207.8071,55.7875,304.3278,0.00010043,1.311e-05,0.0,0 STARLINK-4056,1 53242U 22086A   22324.86393319  .00001311  00000-0  10043-3 0  9996,2 53242  53.2183 207.8071 0001695  55.7875 304.3278 15.08837541 19428,6917.888000000001,95.438,540.925,538.58,0.0
53242.0,STARLINK-4056,PAYLOAD,2022-11-21 09:27:08,15.08844056,0.0001626999999999,53.2176,205.4276,53.0647,307.0494,5.3724e-05,5.67e-06,0.0,0 STARLINK-4056,1 53242U 22086A   22325.39385005  .00000567  00000-0  53724-4 0  9994,2 53242  53.2176 205.4276 0001627  53.0647 307.0494 15.08844056 19502,6917.868,95.437,540.859,538.607,0.0
53242.0,STARLINK-4056,PAYLOAD,2022-11-21 22:10:13,15.08842177,0.0001647,53.2168,203.0486,53.9955,306.119,7.7218e-05,9.41e-06,0.0,0 STARLINK-4056,1 53242U 22086A   22325.92376992  .00000941  00000-0  77218-4 0  9998,2 53242  53.2168 203.0486 0001647  53.9955 306.1190 15.08842177 19586,6917.874,95.437,540.878,538.599,0.0
53242.0,STARLINK-4056,PAYLOAD,2022-11-22 01:21:00,15.08837819,0.0001714,53.2178,202.4525,53.669,306.446,-3.6795e-06,-3.47e-06,0.0,0 STARLINK-4056,1 53242U 22086A   22326.05625638 -.00000347  00000-0 -36795-5 0  9995,2 53242  53.2178 202.4525 0001714  53.6690 306.4460 15.08837819 19100,6917.887,95.438,540.938,538.566,0.0
53242.0,STARLINK-4056,PAYLOAD,2022-11-22 20:25:37,15.08841187,0.0001712,53.2183,198.8835,56.4708,303.6448,5.982600000000001e-05,6.64e-06,0.0,0 STARLINK-4056,1 53242U 22086A   22326.85113158  .00000664  00000-0  59826-4 0  9991,2 53242  53.2183 198.8835 0001712  56.4708 303.6448 15.08841187 19723,6917.877,95.437,540.9259999999998,538.557,0.0
53242.0,STARLINK-4056,PAYLOAD,2022-11-23 09:08:43,15.08833508,0.0001689,53.2173,196.5039,58.6029,301.5128,8.188800000000002e-07,-2.75e-06,0.0,0 STARLINK-4056,1 53242U 22086A   22327.38105917 -.00000275  00000-0  81888-6 0  9998,2 53242  53.2173 196.5039 0001689  58.6029 301.5128 15.08833508 19300,6917.9,95.438,540.934,538.597,0.0
53242.0,STARLINK-4056,PAYLOAD,2022-11-23 21:51:48,15.08833761,0.0001702,53.217,194.1258,55.2962,304.8191,4.2628e-05,3.9e-06,0.0,0 STARLINK-4056,1 53242U 22086A   22327.91097956  .00000390  00000-0  42628-4 0  9994,2 53242  53.2170 194.1258 0001702  55.2962 304.8191 15.08833761 19889,6917.899,95.438,540.942,538.587,0.0
53242.0,STARLINK-4056,PAYLOAD,2022-11-24 01:02:34,15.08833686,0.0001751999999999,53.2174,193.5317,55.0332,305.0824,5.8428e-05,6.42e-06,0.0,0 STARLINK-4056,1 53242U 22086A   22328.04345984  .00000642  00000-0  58428-4 0  9991,2 53242  53.2174 193.5317 0001752  55.0332 305.0824 15.08833686 19901,6917.9,95.438,540.977,538.553,0.0
53242.0,STARLINK-4056,PAYLOAD,2022-11-24 21:42:35,15.08848012,0.0001784,53.2171,189.6664,55.7696,304.3464,3.2791e-05,2.34e-06,0.0,0 STARLINK-4056,1 53242U 22086A   22328.90457255  .00000234  00000-0  32791-4 0  9993,2 53242  53.2171 189.6664 0001784  55.7696 304.3464 15.08848012 20031,6917.856,95.437,540.955,538.487,0.0
53242.0,STARLINK-4056,PAYLOAD,2022-11-25 00:53:21,15.08851461,0.0001844,53.2171,189.0718,55.9691,304.1476,-1.0241e-05,-4.51e-06,0.0,0 STARLINK-4056,1 53242U 22086A   22329.03705139 -.00000451  00000-0 -10241-4 0  9994,2 53242  53.2171 189.0718 0001844  55.9691 304.1476 15.08851461 19557,6917.845,95.437,540.986,538.435,0.0
53242.0,STARLINK-4056,PAYLOAD,2022-11-25 07:14:53,15.08847127,0.0001781999999999,53.2171,187.8824,55.1708,304.9452,4.2487e-05,3.88e-06,0.0,0 STARLINK-4056,1 53242U 22086A   22329.30201119  .00000388  00000-0  42487-4 0  9997,2 53242  53.2171 187.8824 0001782  55.1708 304.9452 15.08847127 20090,6917.859,95.437,540.956,538.491,0.0
53242.0,STARLINK-4056,PAYLOAD,2022-11-25 15:11:50,15.08836608,0.0001943,53.2173,186.3964,59.685,300.4334,6.682300000000001e-05,7.75e-06,0.0,0 STARLINK-4056,1 53242U 22086A   22329.63321901  .00000775  00000-0  66823-4 0  9995,2 53242  53.2173 186.3964 0001943  59.6850 300.4334 15.08836608 19648,6917.891,95.438,541.1,538.4119999999998,0.0
53242.0,STARLINK-4056,PAYLOAD,2022-11-25 19:57:59,15.0883418,0.0001923,53.2172,185.5046,57.0315,303.0862,5.2466e-05,5.47e-06,0.0,0 STARLINK-4056,1 53242U 22086A   22329.83194157  .00000547  00000-0  52466-4 0  9993,2 53242  53.2172 185.5046 0001923  57.0315 303.0862 15.08834180 20173,6917.898,95.438,541.0930000000002,538.433,0.0
53242.0,STARLINK-4056,PAYLOAD,2022-11-26 13:27:13,15.08843029,0.0001761999999999,53.2195,182.2335,56.7202,303.3959,6.251600000000001e-05,7.07e-06,0.0,0 STARLINK-4056,1 53242U 22086A   22330.56057481  .00000707  00000-0  62516-4 0  9998,2 53242  53.2195 182.2335 0001762  56.7202 303.3959 15.08843029 20289,6917.871,95.437,540.955,538.5169999999998,0.0
53242.0,STARLINK-4056,PAYLOAD,2022-11-26 21:24:09,15.08846528,0.0001738,53.2189,180.7473,60.9568,299.1598,5.3915e-05,5.700000000000001e-06,0.0,0 STARLINK-4056,1 53242U 22086A   22330.89177204  .00000570  00000-0  53915-4 0  9991,2 53242  53.2189 180.7473 0001738  60.9568 299.1598 15.08846528 20337,6917.86,95.437,540.928,538.523,0.0
53242.0,STARLINK-4056,PAYLOAD,2022-11-26 22:59:32,15.08848828,0.0001883,53.2181,180.4494,58.113,302.0045,4.2744e-05,3.92e-06,0.0,0 STARLINK-4056,1 53242U 22086A   22330.95801099  .00000392  00000-0  42744-4 0  9994,2 53242  53.2181 180.4494 0001883  58.1130 302.0045 15.08848828 19844,6917.853,95.437,541.021,538.4159999999998,0.0
53242.0,STARLINK-4056,PAYLOAD,2022-11-27 14:53:24,15.08833106,0.0001832,53.2183,177.4756,60.1569,299.9605,2.7883e-05,1.56e-06,0.0,0 STARLINK-4056,1 53242U 22086A   22331.62041984  .00000156  00000-0  27883-4 0  9993,2 53242  53.2183 177.4756 0001832  60.1569 299.9605 15.08833106 20443,6917.901,95.438,541.034,538.499,0.0
53242.0,STARLINK-4056,PAYLOAD,2022-11-27 18:04:10,15.08834325,0.0001834,53.2183,176.8809,60.3431,299.7743,3.7132e-05,3.03e-06,0.0,0 STARLINK-4056,1 53242U 22086A   22331.75289974  .00000303  00000-0  37132-4 0  9992,2 53242  53.2183 176.8809 0001834  60.3431 299.7743 15.08834325 19967,6917.898,95.438,541.031,538.494,0.0
53242.0,STARLINK-4056,PAYLOAD,2022-11-28 14:44:10,15.08844083,0.0001878,53.2176,173.0146,55.654,304.4629,1.1445999999999997e-05,-1.06e-06,0.0,0 STARLINK-4056,1 53242U 22086A   22332.61401551 -.00000106  00000-0  11446-4 0  9997,2 53242  53.2176 173.0146 0001878  55.6540 304.4629 15.08844083 20093,6917.868,95.437,541.0319999999998,538.434,0.0
53242.0,STARLINK-4056,PAYLOAD,2022-11-29 12:59:34,15.088413699999998,0.0001805,53.2173,168.8516,55.8191,304.2973,8.825200000000001e-05,1.117e-05,0.0,0 STARLINK-4056,1 53242U 22086A   22333.54137249  .00001117  00000-0  88252-4 0  9991,2 53242  53.2173 168.8516 0001805  55.8191 304.2973 15.08841370 20734,6917.876,95.437,540.99,538.493,0.0
53242.0,STARLINK-4056,PAYLOAD,2022-11-29 19:21:08,15.08830898,0.0001797,53.2172,167.6625,52.2259,307.8896,-4.2614e-06,-3.56e-06,0.0,0 STARLINK-4056,1 53242U 22086A   22333.80634274 -.00000356  00000-0 -42614-5 0  9999,2 53242  53.2172 167.6625 0001797  52.2259 307.8896 15.08830898 20272,6917.908,95.438,541.016,538.53,0.0
53242.0,STARLINK-4056,PAYLOAD,2022-11-30 11:14:59,15.08833466,0.0001833,53.2173,164.6885,55.932,304.1846,3.3934e-06,-2.34e-06,0.0,0 STARLINK-4056,1 53242U 22086A   22334.46874324 -.00000234  00000-0  33934-5 0  9993,2 53242  53.2173 164.6885 0001833  55.9320 304.1846 15.08833466 20873,6917.9,95.438,541.033,538.497,0.0
53242.0,STARLINK-4056,PAYLOAD,2022-11-30 19:11:55,15.08837115,0.000184,53.2175,163.2019,55.4909,304.6256,-1.1565e-05,-4.72e-06,0.0,0 STARLINK-4056,1 53242U 22086A   22334.79994214 -.00000472  00000-0 -11565-4 0  9990,2 53242  53.2175 163.2019 0001840  55.4909 304.6256 15.08837115 20926,6917.889,95.438,541.0269999999998,538.481,0.0
53242.0,STARLINK-4056,PAYLOAD,2022-12-01 12:41:09,15.08837223,0.0001863,53.2175,159.9312,54.577,305.5396,3.1392e-05,2.11e-06,0.0,0 STARLINK-4056,1 53242U 22086A   22335.52858178  .00000211  00000-0  31392-4 0  9999,2 53242  53.2175 159.9312 0001863  54.5770 305.5396 15.08837223 21033,6917.889,95.438,541.043,538.465,0.0
53242.0,STARLINK-4056,PAYLOAD,2022-12-01 19:02:41,15.08839625,0.0001871,53.2174,158.7418,55.3723,304.7445,5.3379e-05,5.61e-06,0.0,0 STARLINK-4056,1 53242U 22086A   22335.79353995  .00000561  00000-0  53379-4 0  9992,2 53242  53.2174 158.7418 0001871  55.3723 304.7445 15.08839625 21070,6917.882,95.438,541.0409999999998,538.452,0.0
